# Corpus of 60 historical-style METARs for UUWW (Vnukovo).
# Each line is a single report; lines starting with '#' are comments.
# Format includes RMK T-group with 0.1°C precision where present.
METAR UUWW 010000Z 22004MPS 9999 BKN040 02/M01 Q1024 R24/CLRD70 NOSIG RMK QFE745 1//// T00211012=
METAR UUWW 010030Z 22003MPS 9999 BKN040 01/M01 Q1024 NOSIG RMK QFE745 T00141008=
METAR UUWW 010100Z 22003MPS 9999 BKN045 01/M01 Q1024 NOSIG RMK QFE745 T00091012=
METAR UUWW 010130Z 23003MPS 9999 BKN048 00/M02 Q1024 NOSIG RMK QFE745 T00041017=
METAR UUWW 010200Z 23004MPS 9999 BKN050 M01/M03 Q1024 NOSIG RMK QFE745 T10071026=
METAR UUWW 010230Z 23004MPS 9999 BKN050 M01/M03 Q1024 NOSIG RMK QFE745 T10141031=
METAR UUWW 010300Z 23005MPS 9999 BKN055 M02/M04 Q1024 NOSIG RMK QFE745 T10211042=
METAR UUWW 010330Z 24005MPS 9999 BKN060 M02/M04 Q1024 NOSIG RMK QFE745 T10241039=
METAR UUWW 010400Z 24005MPS 9999 BKN060 M01/M03 Q1024 NOSIG RMK QFE745 T10131027=
METAR UUWW 010430Z 24004MPS 9999 BKN060 M01/M03 Q1024 NOSIG RMK QFE746 T10071019=
METAR UUWW 010500Z 24004MPS 9999 BKN060 00/M02 Q1024 NOSIG RMK QFE746 T00021014=
METAR UUWW 010530Z 25004MPS 9999 BKN060 01/M02 Q1024 NOSIG RMK QFE746 T00081012=
METAR UUWW 010600Z 25005MPS 9999 SCT060 02/M01 Q1024 NOSIG RMK QFE746 T00211007=
METAR UUWW 010630Z 25005MPS CAVOK 04/M01 Q1024 NOSIG RMK QFE746 T00411013=
METAR UUWW 010700Z 26006MPS CAVOK 06/M01 Q1024 NOSIG RMK QFE746 T00591014=
METAR UUWW 010730Z 26006MPS CAVOK 08/M00 Q1024 NOSIG RMK QFE746 T00811005=
METAR UUWW 010800Z 27007MPS CAVOK 10/00 Q1023 NOSIG RMK QFE745 T01030003=
METAR UUWW 010830Z 27007MPS CAVOK 12/00 Q1023 NOSIG RMK QFE745 T01170002=
METAR UUWW 010900Z 27008MPS CAVOK 14/00 Q1023 NOSIG RMK QFE745 T01390001=
METAR UUWW 010930Z 28008G13MPS CAVOK 15/M01 Q1022 NOSIG RMK QFE744 T01491008=
METAR UUWW 011000Z 28008G14MPS CAVOK 16/M01 Q1022 NOSIG RMK QFE744 T01571012=
METAR UUWW 011030Z 28009G15MPS CAVOK 17/M01 Q1022 NOSIG RMK QFE744 T01691014=
METAR UUWW 011100Z 28009G15MPS CAVOK 17/M01 Q1022 NOSIG RMK QFE743 T01781013=
METAR UUWW 011130Z 29009G16MPS CAVOK 18/M01 Q1022 NOSIG RMK QFE743 T01821015=
METAR UUWW 011200Z 29009G16MPS CAVOK 18/M01 Q1022 NOSIG RMK QFE743 T01891011=
METAR UUWW 011230Z 29009G16MPS CAVOK 18/M01 Q1022 NOSIG RMK QFE743 T01911010=
METAR UUWW 011300Z 29009MPS CAVOK 18/M01 Q1022 NOSIG RMK QFE743 T01871009=
METAR UUWW 011330Z 29008MPS CAVOK 17/M00 Q1022 NOSIG RMK QFE743 T01710003=
METAR UUWW 011400Z 28008MPS CAVOK 16/00 Q1022 NOSIG RMK QFE743 T01650004=
METAR UUWW 011430Z 28007MPS CAVOK 15/00 Q1022 NOSIG RMK QFE743 T01510002=
METAR UUWW 011500Z 28006MPS CAVOK 14/00 Q1022 NOSIG RMK QFE744 T01380001=
METAR UUWW 011530Z 27006MPS CAVOK 13/M00 Q1023 NOSIG RMK QFE744 T01290002=
METAR UUWW 011600Z 27005MPS CAVOK 12/M01 Q1023 NOSIG RMK QFE745 T01151008=
METAR UUWW 011630Z 27004MPS CAVOK 11/M01 Q1023 NOSIG RMK QFE745 T01081011=
METAR UUWW 011700Z 26004MPS CAVOK 10/M01 Q1024 NOSIG RMK QFE745 T00961013=
METAR UUWW 011730Z 26003MPS CAVOK 09/M01 Q1024 NOSIG RMK QFE745 T00891014=
METAR UUWW 011800Z 25003MPS CAVOK 08/M01 Q1024 NOSIG RMK QFE745 T00781012=
METAR UUWW 011830Z 25002MPS CAVOK 07/M01 Q1024 NOSIG RMK QFE745 T00711013=
METAR UUWW 011900Z 24002MPS CAVOK 06/M01 Q1024 NOSIG RMK QFE745 T00631014=
METAR UUWW 011930Z 23002MPS CAVOK 05/M01 Q1024 NOSIG RMK QFE745 T00541012=
METAR UUWW 012000Z 22002MPS CAVOK 04/M01 Q1025 NOSIG RMK QFE746 T00421015=
METAR UUWW 012030Z 22002MPS CAVOK 03/M01 Q1025 NOSIG RMK QFE746 T00341017=
METAR UUWW 012100Z 21002MPS CAVOK 02/M02 Q1025 NOSIG RMK QFE746 T00251024=
METAR UUWW 012130Z 21002MPS CAVOK 01/M02 Q1025 NOSIG RMK QFE746 T00141022=
METAR UUWW 012200Z 21002MPS CAVOK 00/M02 Q1025 NOSIG RMK QFE746 T00031024=
METAR UUWW 012230Z 20002MPS CAVOK M00/M03 Q1025 NOSIG RMK QFE746 T10081031=
METAR UUWW 012300Z 20002MPS CAVOK M01/M03 Q1025 NOSIG RMK QFE746 T10141029=
METAR UUWW 012330Z 19002MPS CAVOK M01/M03 Q1025 NOSIG RMK QFE746 T10211031=
SPECI UUWW 011115Z 28010G18MPS CAVOK 18/M01 Q1022 NOSIG RMK QFE743 T01791014=
SPECI UUWW 011145Z 29011G19MPS CAVOK 18/M00 Q1022 NOSIG RMK QFE743 T01840002=
METAR UUWW 020000Z 18004MPS 9999 SCT040 03/01 Q1023 NOSIG RMK QFE745 T00270014=
METAR UUWW 020600Z 18005MPS 9999 SCT050 06/02 Q1023 NOSIG RMK QFE745 T00580023=
METAR UUWW 021200Z 19006MPS 9999 BKN045 12/04 Q1022 NOSIG RMK QFE744 T01170040=
METAR UUWW 021400Z 19006MPS 9999 BKN045 14/05 Q1022 NOSIG RMK QFE744 T01380048=
METAR UUWW 021800Z 18004MPS 9999 BKN040 09/04 Q1023 NOSIG RMK QFE745 T00890039=
METAR UUWW 022100Z 17003MPS 9999 SCT040 05/03 Q1024 NOSIG RMK QFE746 T00450028=
METAR UUWW 030000Z 14003MPS 9999 OVC020 02/02 Q1024 NOSIG RMK QFE745 T00210019=
METAR UUWW 030600Z 14004MPS 9999 OVC020 04/03 Q1024 NOSIG RMK QFE745 T00410025=
METAR UUWW 031200Z 14005MPS 8000 -RA OVC015 06/05 Q1023 NOSIG RMK QFE744 T00610047=
METAR UUWW 031800Z 14004MPS 8000 -RA OVC020 05/04 Q1024 NOSIG RMK QFE745 T00510038=
METAR UUWW 040600Z 12005MPS 9999 BKN030 07/04 Q1023 NOSIG RMK QFE744 T00710042=
METAR UUWW 041200Z 13007MPS 9999 SCT040 14/06 Q1022 NOSIG RMK QFE743 T01390062=
METAR UUWW 041400Z 13007MPS 9999 SCT040 15/06 Q1022 NOSIG RMK QFE743 T01480061=
METAR UUWW 041800Z 12005MPS 9999 SCT040 11/05 Q1023 NOSIG RMK QFE744 T01070054=
# Edge cases:
METAR UUWW 050300Z 00000MPS 0500 R24/0500 FZFG OVC003 M05/M05 Q1024 NOSIG RMK QFE745 T10481048=
METAR UUWW 051200Z 31010G16MPS 9999 BKN040 M02/M08 Q1028 NOSIG RMK QFE748 T10231079=
SPECI UUWW 052100Z VRB02MPS CAVOK M10/M14 Q1030 NOSIG RMK QFE750 T11041138=
